POPACS 2                
1 39269U 13055E   17345.91630317  .00002548  00000-0  72824-4 0  9999
2 39269  81.0152 200.6728 0696494 105.0475 262.8812 14.21205399215310
